{
  "type": "FeatureCollection",
  "features": [
    {
      "type": "Feature",
      "properties": {
        "norad_id": 43246,
        "name": "BEIDOU-3 M10 (C30)",
        "group": "gnss",
        "lat": -43.24059185987074,
        "lon": -95.80031259349741,
        "alt_km": 21527.150455162417,
        "timestamp": "2025-12-09T18:55:17.475634+00:00",
        "meta_object_name": "BEIDOU-3 M10 (C30)",
        "meta_object_id": "2018-029B",
        "meta_epoch": "2025-12-09T08:05:23.415648",
        "meta_mean_motion": 1.86228788,
        "meta_eccentricity": 0.00039729,
        "meta_inclination": 54.3665,
        "meta_ra_of_asc_node": 306.6138,
        "meta_arg_of_pericenter": 359.0444,
        "meta_mean_anomaly": 0.9446,
        "meta_ephemeris_type": 0,
        "meta_classification_type": "U",
        "meta_norad_cat_id": 43246,
        "meta_element_set_no": 999,
        "meta_rev_at_epoch": 5234,
        "meta_bstar": 0,
        "meta_mean_motion_dot": -7.6e-07,
        "meta_mean_motion_ddot": 0,
        "tle_line1": "1 43246U 18029B   25343.33707657 -.00000076  00000+0  00000+0 0  9996",
        "tle_line2": "2 43246  54.3665 306.6138 0003972 359.0444   0.9446  1.86228788 52344"
      },
      "geometry": {
        "type": "Point",
        "coordinates": [
          -95.80031259349741,
          -43.24059185987074
        ]
      }
    },
    {
      "type": "Feature",
      "properties": {
        "norad_id": 43286,
        "name": "IRNSS-1I",
        "group": "gnss",
        "lat": -9.30540028227305,
        "lon": 60.04781723081889,
        "alt_km": 35874.598819696665,
        "timestamp": "2025-12-09T18:55:17.475645+00:00",
        "meta_object_name": "IRNSS-1I",
        "meta_object_id": "2018-035A",
        "meta_epoch": "2025-12-08T20:42:35.011008",
        "meta_mean_motion": 1.00269532,
        "meta_eccentricity": 0.0021883,
        "meta_inclination": 29.1411,
        "meta_ra_of_asc_node": 77.1575,
        "meta_arg_of_pericenter": 181.4229,
        "meta_mean_anomaly": 184.9765,
        "meta_ephemeris_type": 0,
        "meta_classification_type": "U",
        "meta_norad_cat_id": 43286,
        "meta_element_set_no": 999,
        "meta_rev_at_epoch": 2817,
        "meta_bstar": 0,
        "meta_mean_motion_dot": 7.6e-07,
        "meta_mean_motion_ddot": 0,
        "tle_line1": "1 43286U 18035A   25342.86290522  .00000076  00000+0  00000+0 0  9991",
        "tle_line2": "2 43286  29.1411  77.1575 0021883 181.4229 184.9765  1.00269532 28170"
      },
      "geometry": {
        "type": "Point",
        "coordinates": [
          60.04781723081889,
          -9.30540028227305
        ]
      }
    },
    {
      "type": "Feature",
      "properties": {
        "norad_id": 43508,
        "name": "COSMOS 2527 (756)",
        "group": "gnss",
        "lat": -34.77272389161158,
        "lon": -81.30882875357098,
        "alt_km": 19112.657623508054,
        "timestamp": "2025-12-09T18:55:17.475656+00:00",
        "meta_object_name": "COSMOS 2527 (756)",
        "meta_object_id": "2018-053A",
        "meta_epoch": "2025-12-09T12:04:31.346976",
        "meta_mean_motion": 2.13102032,
        "meta_eccentricity": 0.00085763,
        "meta_inclination": 65.4709,
        "meta_ra_of_asc_node": 80.2399,
        "meta_arg_of_pericenter": 224.3157,
        "meta_mean_anomaly": 135.632,
        "meta_ephemeris_type": 0,
        "meta_classification_type": "U",
        "meta_norad_cat_id": 43508,
        "meta_element_set_no": 999,
        "meta_rev_at_epoch": 5823,
        "meta_bstar": 0,
        "meta_mean_motion_dot": -1.3e-07,
        "meta_mean_motion_ddot": 0,
        "tle_line1": "1 43508U 18053A   25343.50314059 -.00000013  00000+0  00000+0 0  9994",
        "tle_line2": "2 43508  65.4709  80.2399 0008576 224.3157 135.6320  2.13102032 58236"
      },
      "geometry": {
        "type": "Point",
        "coordinates": [
          -81.30882875357098,
          -34.77272389161158
        ]
      }
    },
    {
      "type": "Feature",
      "properties": {
        "norad_id": 43539,
        "name": "BEIDOU-2 IGSO-7 (C16)",
        "group": "gnss",
        "lat": -38.9303945740029,
        "lon": 130.42225010465745,
        "alt_km": 35688.98963877625,
        "timestamp": "2025-12-09T18:55:17.475667+00:00",
        "meta_object_name": "BEIDOU-2 IGSO-7 (C16)",
        "meta_object_id": "2018-057A",
        "meta_epoch": "2025-12-09T10:39:54.393984",
        "meta_mean_motion": 1.00258071,
        "meta_eccentricity": 0.0092596,
        "meta_inclination": 55.1734,
        "meta_ra_of_asc_node": 164.6998,
        "meta_arg_of_pericenter": 235.2278,
        "meta_mean_anomaly": 309.5847,
        "meta_ephemeris_type": 0,
        "meta_classification_type": "U",
        "meta_norad_cat_id": 43539,
        "meta_element_set_no": 999,
        "meta_rev_at_epoch": 2722,
        "meta_bstar": 0,
        "meta_mean_motion_dot": -6.9e-07,
        "meta_mean_motion_ddot": 0,
        "tle_line1": "1 43539U 18057A   25343.44437956 -.00000069  00000+0  00000+0 0  9998",
        "tle_line2": "2 43539  55.1734 164.6998 0092596 235.2278 309.5847  1.00258071 27227"
      },
      "geometry": {
        "type": "Point",
        "coordinates": [
          130.42225010465745,
          -38.9303945740029
        ]
      }
    },
    {
      "type": "Feature",
      "properties": {
        "norad_id": 43564,
        "name": "GSAT0221 (GALILEO 25)",
        "group": "gnss",
        "lat": 48.56920745749951,
        "lon": 120.0149837603762,
        "alt_km": 23235.488682429917,
        "timestamp": "2025-12-09T18:55:17.475683+00:00",
        "meta_object_name": "GSAT0221 (GALILEO 25)",
        "meta_object_id": "2018-060A",
        "meta_epoch": "2025-12-09T00:16:12.119232",
        "meta_mean_motion": 1.70475733,
        "meta_eccentricity": 0.00067013,
        "meta_inclination": 57.2286,
        "meta_ra_of_asc_node": 346.9182,
        "meta_arg_of_pericenter": 282.1379,
        "meta_mean_anomaly": 77.8037,
        "meta_ephemeris_type": 0,
        "meta_classification_type": "U",
        "meta_norad_cat_id": 43564,
        "meta_element_set_no": 999,
        "meta_rev_at_epoch": 4592,
        "meta_bstar": 0,
        "meta_mean_motion_dot": -8.7e-07,
        "meta_mean_motion_ddot": 0,
        "tle_line1": "1 43564U 18060A   25343.01125138 -.00000087  00000+0  00000+0 0  9999",
        "tle_line2": "2 43564  57.2286 346.9182 0006701 282.1379  77.8037  1.70475733 45922"
      },
      "geometry": {
        "type": "Point",
        "coordinates": [
          120.0149837603762,
          48.56920745749951
        ]
      }
    },
    {
      "type": "Feature",
      "properties": {
        "norad_id": 43565,
        "name": "GSAT0222 (GALILEO 26)",
        "group": "gnss",
        "lat": -14.774878099439547,
        "lon": -22.882812549306706,
        "alt_km": 23220.89153117568,
        "timestamp": "2025-12-09T18:55:17.475694+00:00",
        "meta_object_name": "GSAT0222 (GALILEO 26)",
        "meta_object_id": "2018-060B",
        "meta_epoch": "2025-12-09T05:32:02.497344",
        "meta_mean_motion": 1.7047545,
        "meta_eccentricity": 0.00061659,
        "meta_inclination": 57.2321,
        "meta_ra_of_asc_node": 346.9153,
        "meta_arg_of_pericenter": 262.6798,
        "meta_mean_anomaly": 97.2666,
        "meta_ephemeris_type": 0,
        "meta_classification_type": "U",
        "meta_norad_cat_id": 43565,
        "meta_element_set_no": 999,
        "meta_rev_at_epoch": 4597,
        "meta_bstar": 0,
        "meta_mean_motion_dot": -8.7e-07,
        "meta_mean_motion_ddot": 0,
        "tle_line1": "1 43565U 18060B   25343.23058446 -.00000087  00000+0  00000+0 0  9991",
        "tle_line2": "2 43565  57.2321 346.9153 0006165 262.6798  97.2666  1.70475450 45978"
      },
      "geometry": {
        "type": "Point",
        "coordinates": [
          -22.882812549306706,
          -14.774878099439547
        ]
      }
    },
    {
      "type": "Feature",
      "properties": {
        "norad_id": 43566,
        "name": "GSAT0219 (GALILEO 23)",
        "group": "gnss",
        "lat": -22.05858661884153,
        "lon": -177.96947310345845,
        "alt_km": 23221.84644518275,
        "timestamp": "2025-12-09T18:55:17.475705+00:00",
        "meta_object_name": "GSAT0219 (GALILEO 23)",
        "meta_object_id": "2018-060C",
        "meta_epoch": "2025-12-07T16:36:27.181728",
        "meta_mean_motion": 1.7047564,
        "meta_eccentricity": 0.00057893,
        "meta_inclination": 57.2316,
        "meta_ra_of_asc_node": 346.9585,
        "meta_arg_of_pericenter": 285.9629,
        "meta_mean_anomaly": 73.992,
        "meta_ephemeris_type": 0,
        "meta_classification_type": "U",
        "meta_norad_cat_id": 43566,
        "meta_element_set_no": 999,
        "meta_rev_at_epoch": 4592,
        "meta_bstar": 0,
        "meta_mean_motion_dot": -8.4e-07,
        "meta_mean_motion_ddot": 0,
        "tle_line1": "1 43566U 18060C   25341.69198127 -.00000084  00000+0  00000+0 0  9998",
        "tle_line2": "2 43566  57.2316 346.9585 0005789 285.9629  73.9920  1.70475640 45924"
      },
      "geometry": {
        "type": "Point",
        "coordinates": [
          -177.96947310345845,
          -22.05858661884153
        ]
      }
    }
  ]
}